{
  "links" : {
    "next" : "https://api.nasa.gov/neo/rest/v1/feed?start_date=2000-08-09&end_date=2000-08-09&detailed=true&api_key=t0TVs3DtDT2H8Oy2Zy8m2eVrNsAVKAexjcZXUckd",
    "prev" : "https://api.nasa.gov/neo/rest/v1/feed?start_date=2000-08-07&end_date=2000-08-07&detailed=true&api_key=t0TVs3DtDT2H8Oy2Zy8m2eVrNsAVKAexjcZXUckd",
    "self" : "https://api.nasa.gov/neo/rest/v1/feed?start_date=2000-08-08&end_date=2000-08-08&detailed=true&api_key=t0TVs3DtDT2H8Oy2Zy8m2eVrNsAVKAexjcZXUckd"
  },
  "element_count" : 6,
  "near_earth_objects" : {
    "2000-08-08" : [ {
      "links" : {
        "self" : "https://api.nasa.gov/neo/rest/v1/neo/2367943?api_key=t0TVs3DtDT2H8Oy2Zy8m2eVrNsAVKAexjcZXUckd"
      },
      "neo_reference_id" : "2367943",
      "name" : "367943 Duende (2012 DA14)",
      "nasa_jpl_url" : "http://ssd.jpl.nasa.gov/sbdb.cgi?sstr=2367943",
      "absolute_magnitude_h" : 24.0,
      "estimated_diameter" : {
        "kilometers" : {
          "estimated_diameter_min" : 0.0421264611,
          "estimated_diameter_max" : 0.0941976306
        },
        "meters" : {
          "estimated_diameter_min" : 42.1264610556,
          "estimated_diameter_max" : 94.1976305719
        },
        "miles" : {
          "estimated_diameter_min" : 0.0261761612,
          "estimated_diameter_max" : 0.0585316759
        },
        "feet" : {
          "estimated_diameter_min" : 138.2101784897,
          "estimated_diameter_max" : 309.0473542854
        }
      },
      "is_potentially_hazardous_asteroid" : false,
      "close_approach_data" : [ {
        "close_approach_date" : "2000-08-08",
        "epoch_date_close_approach" : 965718000000,
        "relative_velocity" : {
          "kilometers_per_second" : "10.7547308012",
          "kilometers_per_hour" : "38717.0308842674",
          "miles_per_hour" : "24057.2573291716"
        },
        "miss_distance" : {
          "astronomical" : "0.2173426732",
          "lunar" : "84.5463027954",
          "kilometers" : "32514002",
          "miles" : "20203264"
        },
        "orbiting_body" : "Earth"
      } ],
      "orbital_data" : {
        "orbit_id" : "80",
        "orbit_determination_date" : "2017-04-06 09:22:36",
        "orbit_uncertainty" : "0",
        "minimum_orbit_intersection" : ".00172365",
        "jupiter_tisserand_invariant" : "6.532",
        "epoch_osculation" : "2458000.5",
        "eccentricity" : ".08934798500351414",
        "semi_major_axis" : ".910284163483397",
        "inclination" : "11.60915288087941",
        "ascending_node_longitude" : "146.9612496093153",
        "orbital_period" : "317.2224446928078",
        "perihelion_distance" : ".8289521076955461",
        "perihelion_argument" : "195.5895845340659",
        "aphelion_distance" : ".991616219271248",
        "perihelion_time" : "2458100.272452815114",
        "mean_anomaly" : "246.7731977533194",
        "mean_motion" : "1.134850342473772",
        "equinox" : "J2000"
      }
    }, {
      "links" : {
        "self" : "https://api.nasa.gov/neo/rest/v1/neo/3046122?api_key=t0TVs3DtDT2H8Oy2Zy8m2eVrNsAVKAexjcZXUckd"
      },
      "neo_reference_id" : "3046122",
      "name" : "(2000 PP9)",
      "nasa_jpl_url" : "http://ssd.jpl.nasa.gov/sbdb.cgi?sstr=3046122",
      "absolute_magnitude_h" : 19.1,
      "estimated_diameter" : {
        "kilometers" : {
          "estimated_diameter_min" : 0.4023045798,
          "estimated_diameter_max" : 0.8995803882
        },
        "meters" : {
          "estimated_diameter_min" : 402.3045798343,
          "estimated_diameter_max" : 899.5803881691
        },
        "miles" : {
          "estimated_diameter_min" : 0.2499803991,
          "estimated_diameter_max" : 0.5589731654
        },
        "feet" : {
          "estimated_diameter_min" : 1319.8969577037,
          "estimated_diameter_max" : 2951.3793207207
        }
      },
      "is_potentially_hazardous_asteroid" : true,
      "close_approach_data" : [ {
        "close_approach_date" : "2000-08-08",
        "epoch_date_close_approach" : 965718000000,
        "relative_velocity" : {
          "kilometers_per_second" : "8.1349024926",
          "kilometers_per_hour" : "29285.648973423",
          "miles_per_hour" : "18196.9633857361"
        },
        "miss_distance" : {
          "astronomical" : "0.0845305075",
          "lunar" : "32.8823699951",
          "kilometers" : "12645584",
          "miles" : "7857602"
        },
        "orbiting_body" : "Earth"
      } ],
      "orbital_data" : {
        "orbit_id" : "43",
        "orbit_determination_date" : "2017-04-06 09:16:55",
        "orbit_uncertainty" : "0",
        "minimum_orbit_intersection" : ".0469681",
        "jupiter_tisserand_invariant" : "3.345",
        "epoch_osculation" : "2458000.5",
        "eccentricity" : ".550595373250094",
        "semi_major_axis" : "2.330320179781954",
        "inclination" : "5.592323226483876",
        "ascending_node_longitude" : "171.7153136120808",
        "orbital_period" : "1299.337045754435",
        "perihelion_distance" : "1.047256670602683",
        "perihelion_argument" : "159.5388808135157",
        "aphelion_distance" : "3.613383688961225",
        "perihelion_time" : "2458259.267157024924",
        "mean_anomaly" : "288.3048406621216",
        "mean_motion" : ".2770643700002972",
        "equinox" : "J2000"
      }
    }, {
      "links" : {
        "self" : "https://api.nasa.gov/neo/rest/v1/neo/3092269?api_key=t0TVs3DtDT2H8Oy2Zy8m2eVrNsAVKAexjcZXUckd"
      },
      "neo_reference_id" : "3092269",
      "name" : "(2000 PN8)",
      "nasa_jpl_url" : "http://ssd.jpl.nasa.gov/sbdb.cgi?sstr=3092269",
      "absolute_magnitude_h" : 22.1,
      "estimated_diameter" : {
        "kilometers" : {
          "estimated_diameter_min" : 0.1010543415,
          "estimated_diameter_max" : 0.2259643771
        },
        "meters" : {
          "estimated_diameter_min" : 101.054341542,
          "estimated_diameter_max" : 225.9643771094
        },
        "miles" : {
          "estimated_diameter_min" : 0.0627922373,
          "estimated_diameter_max" : 0.140407711
        },
        "feet" : {
          "estimated_diameter_min" : 331.5431259047,
          "estimated_diameter_max" : 741.3529669956
        }
      },
      "is_potentially_hazardous_asteroid" : false,
      "close_approach_data" : [ {
        "close_approach_date" : "2000-08-08",
        "epoch_date_close_approach" : 965718000000,
        "relative_velocity" : {
          "kilometers_per_second" : "11.9563230812",
          "kilometers_per_hour" : "43042.7630923002",
          "miles_per_hour" : "26745.099100324"
        },
        "miss_distance" : {
          "astronomical" : "0.114030236",
          "lunar" : "44.3577613831",
          "kilometers" : "17058680",
          "miles" : "10599773"
        },
        "orbiting_body" : "Earth"
      } ],
      "orbital_data" : {
        "orbit_id" : "26",
        "orbit_determination_date" : "2017-04-06 09:16:56",
        "orbit_uncertainty" : "0",
        "minimum_orbit_intersection" : ".0786584",
        "jupiter_tisserand_invariant" : "5.041",
        "epoch_osculation" : "2455920.5",
        "eccentricity" : ".2170798862058015",
        "semi_major_axis" : "1.252208036454139",
        "inclination" : "22.38684494543919",
        "ascending_node_longitude" : "142.8084549988845",
        "orbital_period" : "511.815173344281",
        "perihelion_distance" : ".9803788583946842",
        "perihelion_argument" : "112.1444782893274",
        "aphelion_distance" : "1.524037214513593",
        "perihelion_time" : "2455796.773433761378",
        "mean_anomaly" : "87.02665760153675",
        "mean_motion" : ".7033789124454894",
        "equinox" : "J2000"
      }
    } ]
  }
}